JILIN-1 KUANFU 01       
1 45016U 20003A   26195.90430647  .00001518  00000+0  94976-4 0  9990
2 45016  97.5021 269.3196 0009223 197.9575 162.1331 15.10866248359518
JILIN-1 KUANFU-01B      
1 49003U 21061A   26195.94283293  .00001648  00000+0  10585-3 0  9999
2 49003  97.5213 271.6203 0006087 338.3350  21.7620 15.09808715277538
JILIN-1 KUANFU 01C      
1 52443U 22048A   26195.93467701  .00001300  00000+0  84602-4 0  9991
2 52443  97.5250 272.6023 0017303 221.1242 138.8684 15.09599107231389
JILIN-1 KUANFU 02A      
1 57696U 23127A   26195.95418780  .00002419  00000+0  14938-3 0  9996
2 57696  97.5572 289.4222 0010288 237.6928 122.3306 15.10810371159824
JILIN-01 KUANFU 02B 1   
1 61189U 24169A   26195.90133642  .00001694  00000+0  11100-3 0  9993
2 61189  97.5577 284.9985 0001554 343.4292  16.6886 15.09056488100006
JILIN-01 KUANFU 02B 2   
1 61190U 24169B   26195.94725990  .00001721  00000+0  11279-3 0  9990
2 61190  97.5570 284.4285 0004836 280.6772  79.3912 15.09017344100015
JILIN-01 KUANFU 02B 3   
1 61191U 24169C   26195.95621057  .00001656  00000+0  10842-3 0  9993
2 61191  97.5566 284.8702 0013018 206.7355 153.3204 15.09056215100014
JILIN-01 KUANFU 02B 4   
1 61192U 24169D   26195.92498801  .00002615  00000+0  16893-3 0  9998
2 61192  97.5534 284.3658 0013992 164.7204 195.4450 15.09042352100019
JILIN-01 KUANFU 02B 5   
1 61193U 24169E   26195.91202335  .00001903  00000+0  12395-3 0  9995
2 61193  97.5584 285.1498 0013174 187.9627 172.1395 15.09075877100012
JILIN-01 KUANFU 02B 6   
1 61194U 24169F   26195.93564897  .00002056  00000+0  13367-3 0  9992
2 61194  97.5559 285.0658 0015575 222.2802 137.7227 15.09033018100020
