{"fetched_at":"2026-07-15T06:36:10.372Z","source":"https://celestrak.org/NORAD/elements/gp.php?NAME=JILIN&FORMAT=JSON","constellation":"jilin-1-kuanfu","records":[{"OBJECT_NAME":"JILIN-1 KUANFU 01","OBJECT_ID":"2020-003A","EPOCH":"2026-07-14T21:42:12.079008","CLASSIFICATION_TYPE":"U","MEAN_MOTION":15.10866248,"ECCENTRICITY":0.00092235,"INCLINATION":97.5021,"RA_OF_ASC_NODE":269.3196,"ARG_OF_PERICENTER":197.9575,"MEAN_ANOMALY":162.1331,"EPHEMERIS_TYPE":0,"NORAD_CAT_ID":45016,"ELEMENT_SET_NO":999,"REV_AT_EPOCH":35951,"BSTAR":0.000094975954,"MEAN_MOTION_DOT":0.00001518,"MEAN_MOTION_DDOT":0},{"OBJECT_NAME":"JILIN-1 KUANFU-01B","OBJECT_ID":"2021-061A","EPOCH":"2026-07-14T22:37:40.765152","CLASSIFICATION_TYPE":"U","MEAN_MOTION":15.09808715,"ECCENTRICITY":0.00060879,"INCLINATION":97.5213,"RA_OF_ASC_NODE":271.6203,"ARG_OF_PERICENTER":338.335,"MEAN_ANOMALY":21.762,"EPHEMERIS_TYPE":0,"NORAD_CAT_ID":49003,"ELEMENT_SET_NO":999,"REV_AT_EPOCH":27753,"BSTAR":0.00010584503,"MEAN_MOTION_DOT":0.00001648,"MEAN_MOTION_DDOT":0},{"OBJECT_NAME":"JILIN-1 KUANFU 01C","OBJECT_ID":"2022-048A","EPOCH":"2026-07-14T22:25:56.093664","CLASSIFICATION_TYPE":"U","MEAN_MOTION":15.09599107,"ECCENTRICITY":0.00173035,"INCLINATION":97.525,"RA_OF_ASC_NODE":272.6023,"ARG_OF_PERICENTER":221.1242,"MEAN_ANOMALY":138.8684,"EPHEMERIS_TYPE":0,"NORAD_CAT_ID":52443,"ELEMENT_SET_NO":999,"REV_AT_EPOCH":23138,"BSTAR":0.000084601519,"MEAN_MOTION_DOT":0.000013,"MEAN_MOTION_DDOT":0},{"OBJECT_NAME":"JILIN-1 KUANFU 02A","OBJECT_ID":"2023-127A","EPOCH":"2026-07-14T22:54:01.825920","CLASSIFICATION_TYPE":"U","MEAN_MOTION":15.10810371,"ECCENTRICITY":0.00102883,"INCLINATION":97.5572,"RA_OF_ASC_NODE":289.4222,"ARG_OF_PERICENTER":237.6928,"MEAN_ANOMALY":122.3306,"EPHEMERIS_TYPE":0,"NORAD_CAT_ID":57696,"ELEMENT_SET_NO":999,"REV_AT_EPOCH":15982,"BSTAR":0.00014938185,"MEAN_MOTION_DOT":0.00002419,"MEAN_MOTION_DDOT":0},{"OBJECT_NAME":"JILIN-01 KUANFU 02B 1","OBJECT_ID":"2024-169A","EPOCH":"2026-07-14T21:37:55.466688","CLASSIFICATION_TYPE":"U","MEAN_MOTION":15.09056488,"ECCENTRICITY":0.00015549,"INCLINATION":97.5577,"RA_OF_ASC_NODE":284.9985,"ARG_OF_PERICENTER":343.4292,"MEAN_ANOMALY":16.6886,"EPHEMERIS_TYPE":0,"NORAD_CAT_ID":61189,"ELEMENT_SET_NO":999,"REV_AT_EPOCH":10000,"BSTAR":0.00011100401,"MEAN_MOTION_DOT":0.00001694,"MEAN_MOTION_DDOT":0},{"OBJECT_NAME":"JILIN-01 KUANFU 02B 2","OBJECT_ID":"2024-169B","EPOCH":"2026-07-14T22:44:03.255360","CLASSIFICATION_TYPE":"U","MEAN_MOTION":15.09017344,"ECCENTRICITY":0.00048362,"INCLINATION":97.557,"RA_OF_ASC_NODE":284.4285,"ARG_OF_PERICENTER":280.6772,"MEAN_ANOMALY":79.3912,"EPHEMERIS_TYPE":0,"NORAD_CAT_ID":61190,"ELEMENT_SET_NO":999,"REV_AT_EPOCH":10001,"BSTAR":0.00011278721,"MEAN_MOTION_DOT":0.00001721,"MEAN_MOTION_DDOT":0},{"OBJECT_NAME":"JILIN-01 KUANFU 02B 3","OBJECT_ID":"2024-169C","EPOCH":"2026-07-14T22:56:56.593248","CLASSIFICATION_TYPE":"U","MEAN_MOTION":15.09056215,"ECCENTRICITY":0.00130187,"INCLINATION":97.5566,"RA_OF_ASC_NODE":284.8702,"ARG_OF_PERICENTER":206.7355,"MEAN_ANOMALY":153.3204,"EPHEMERIS_TYPE":0,"NORAD_CAT_ID":61191,"ELEMENT_SET_NO":999,"REV_AT_EPOCH":10001,"BSTAR":0.00010842427,"MEAN_MOTION_DOT":0.00001656,"MEAN_MOTION_DDOT":0},{"OBJECT_NAME":"JILIN-01 KUANFU 02B 4","OBJECT_ID":"2024-169D","EPOCH":"2026-07-14T22:11:58.964064","CLASSIFICATION_TYPE":"U","MEAN_MOTION":15.09042352,"ECCENTRICITY":0.00139924,"INCLINATION":97.5534,"RA_OF_ASC_NODE":284.3658,"ARG_OF_PERICENTER":164.7204,"MEAN_ANOMALY":195.445,"EPHEMERIS_TYPE":0,"NORAD_CAT_ID":61192,"ELEMENT_SET_NO":999,"REV_AT_EPOCH":10001,"BSTAR":0.00016893051,"MEAN_MOTION_DOT":0.00002615,"MEAN_MOTION_DDOT":0},{"OBJECT_NAME":"JILIN-01 KUANFU 02B 5","OBJECT_ID":"2024-169E","EPOCH":"2026-07-14T21:53:18.817440","CLASSIFICATION_TYPE":"U","MEAN_MOTION":15.09075877,"ECCENTRICITY":0.00131745,"INCLINATION":97.5584,"RA_OF_ASC_NODE":285.1498,"ARG_OF_PERICENTER":187.9627,"MEAN_ANOMALY":172.1395,"EPHEMERIS_TYPE":0,"NORAD_CAT_ID":61193,"ELEMENT_SET_NO":999,"REV_AT_EPOCH":10001,"BSTAR":0.00012395497,"MEAN_MOTION_DOT":0.00001903,"MEAN_MOTION_DDOT":0},{"OBJECT_NAME":"JILIN-01 KUANFU 02B 6","OBJECT_ID":"2024-169F","EPOCH":"2026-07-14T22:27:20.071008","CLASSIFICATION_TYPE":"U","MEAN_MOTION":15.09033018,"ECCENTRICITY":0.00155759,"INCLINATION":97.5559,"RA_OF_ASC_NODE":285.0658,"ARG_OF_PERICENTER":222.2802,"MEAN_ANOMALY":137.7227,"EPHEMERIS_TYPE":0,"NORAD_CAT_ID":61194,"ELEMENT_SET_NO":999,"REV_AT_EPOCH":10002,"BSTAR":0.00013366575,"MEAN_MOTION_DOT":0.00002056,"MEAN_MOTION_DDOT":0}]}
